{
  "links" : {
    "next" : "https://api.nasa.gov/neo/rest/v1/feed?start_date=2010-09-23&end_date=2010-09-23&detailed=true&api_key=t0TVs3DtDT2H8Oy2Zy8m2eVrNsAVKAexjcZXUckd",
    "prev" : "https://api.nasa.gov/neo/rest/v1/feed?start_date=2010-09-21&end_date=2010-09-21&detailed=true&api_key=t0TVs3DtDT2H8Oy2Zy8m2eVrNsAVKAexjcZXUckd",
    "self" : "https://api.nasa.gov/neo/rest/v1/feed?start_date=2010-09-22&end_date=2010-09-22&detailed=true&api_key=t0TVs3DtDT2H8Oy2Zy8m2eVrNsAVKAexjcZXUckd"
  },
  "element_count" : 7,
  "near_earth_objects" : {
    "2010-09-22" : [ {
      "links" : {
        "self" : "https://api.nasa.gov/neo/rest/v1/neo/3014114?api_key=t0TVs3DtDT2H8Oy2Zy8m2eVrNsAVKAexjcZXUckd"
      },
      "neo_reference_id" : "3014114",
      "name" : "(1998 SZ27)",
      "nasa_jpl_url" : "http://ssd.jpl.nasa.gov/sbdb.cgi?sstr=3014114",
      "absolute_magnitude_h" : 20.6,
      "estimated_diameter" : {
        "kilometers" : {
          "estimated_diameter_min" : 0.2016299194,
          "estimated_diameter_max" : 0.4508582062
        },
        "meters" : {
          "estimated_diameter_min" : 201.6299194428,
          "estimated_diameter_max" : 450.8582061718
        },
        "miles" : {
          "estimated_diameter_min" : 0.1252869847,
          "estimated_diameter_max" : 0.2801502144
        },
        "feet" : {
          "estimated_diameter_min" : 661.5155049046,
          "estimated_diameter_max" : 1479.1936371367
        }
      },
      "is_potentially_hazardous_asteroid" : true,
      "close_approach_data" : [ {
        "close_approach_date" : "2010-09-22",
        "epoch_date_close_approach" : 1285138800000,
        "relative_velocity" : {
          "kilometers_per_second" : "29.4302812921",
          "kilometers_per_hour" : "105949.0126515179",
          "miles_per_hour" : "65832.5962222723"
        },
        "miss_distance" : {
          "astronomical" : "0.3768912513",
          "lunar" : "146.6107025146",
          "kilometers" : "56382128",
          "miles" : "35034232"
        },
        "orbiting_body" : "Earth"
      } ],
      "orbital_data" : {
        "orbit_id" : "20",
        "orbit_determination_date" : "2017-09-26 06:49:30",
        "orbit_uncertainty" : "1",
        "minimum_orbit_intersection" : ".00776213",
        "jupiter_tisserand_invariant" : "6.406",
        "epoch_osculation" : "2458000.5",
        "eccentricity" : ".5067309960541482",
        "semi_major_axis" : ".905332741622625",
        "inclination" : "23.64366894559662",
        "ascending_node_longitude" : "166.721693930318",
        "orbital_period" : "314.637706309309",
        "perihelion_distance" : ".4465725796997594",
        "perihelion_argument" : "47.72096542591851",
        "aphelion_distance" : "1.364092903545491",
        "perihelion_time" : "2457924.178594344949",
        "mean_anomaly" : "87.3248993520435",
        "mean_motion" : "1.144173100620359",
        "equinox" : "J2000"
      }
    } ]
  }
}